NAVSTAR 77 (USA 289)    
1 43873U 18109A   24204.74818929  .00000010  00000+0  00000+0 0  9993
2 43873  55.3090 119.6234 0029580 194.0425 351.3893  2.00557464 41149
